1 27424U 02022A   12259.73900296 -.00004863  00000-0 -10703-2 0  4249
2 27424 098.2013 198.8951 0001614 060.3321 299.7914 14.57105196551553